CCSDS_OMM_VERS = 2.0
CREATION_DATE  = 
ORIGINATOR     = 

OBJECT_NAME    = ERS-1
OBJECT_ID      = 1991-050A
CENTER_NAME    = EARTH
REF_FRAME      = TEME
TIME_SYSTEM    = UTC
MEAN_ELEMENT_THEORY = SGP/SGP4

EPOCH          = 2026-03-10T01:04:38.280864
MEAN_MOTION    = 14.39449653
ECCENTRICITY   = .00316351
INCLINATION    = 98.7882
RA_OF_ASC_NODE = 87.2884
ARG_OF_PERICENTER = 199.3829
MEAN_ANOMALY   = 160.6157

EPHEMERIS_TYPE = 0
CLASSIFICATION_TYPE = U
NORAD_CAT_ID   = 21574
ELEMENT_SET_NO = 999
REV_AT_EPOCH   = 81578
BSTAR          = .14036958E-3
MEAN_MOTION_DOT = .393E-5
MEAN_MOTION_DDOT = 0

CCSDS_OMM_VERS = 2.0
CREATION_DATE  = 
ORIGINATOR     = 

OBJECT_NAME    = ARIANE 40 R/B
OBJECT_ID      = 1991-050F
CENTER_NAME    = EARTH
REF_FRAME      = TEME
TIME_SYSTEM    = UTC
MEAN_ELEMENT_THEORY = SGP/SGP4

EPOCH          = 2026-03-10T03:56:39.007968
MEAN_MOTION    = 14.42894016
ECCENTRICITY   = .00042989
INCLINATION    = 98.2010
RA_OF_ASC_NODE = 121.3829
ARG_OF_PERICENTER = 80.2346
MEAN_ANOMALY   = 279.9330

EPHEMERIS_TYPE = 0
CLASSIFICATION_TYPE = U
NORAD_CAT_ID   = 21610
ELEMENT_SET_NO = 999
REV_AT_EPOCH   = 81906
BSTAR          = .1214376E-3
MEAN_MOTION_DOT = .364E-5
MEAN_MOTION_DDOT = 0

CCSDS_OMM_VERS = 2.0
CREATION_DATE  = 
ORIGINATOR     = 

OBJECT_NAME    = INTERCOSMOS 25
OBJECT_ID      = 1991-086A
CENTER_NAME    = EARTH
REF_FRAME      = TEME
TIME_SYSTEM    = UTC
MEAN_ELEMENT_THEORY = SGP/SGP4

EPOCH          = 2026-03-10T03:40:24.470400
MEAN_MOTION    = 12.12000626
ECCENTRICITY   = .14869683
INCLINATION    = 82.6045
RA_OF_ASC_NODE = 309.7287
ARG_OF_PERICENTER = 115.9335
MEAN_ANOMALY   = 260.2411

EPHEMERIS_TYPE = 0
CLASSIFICATION_TYPE = U
NORAD_CAT_ID   = 21819
ELEMENT_SET_NO = 999
REV_AT_EPOCH   = 49674
BSTAR          = .33862142E-3
MEAN_MOTION_DOT = .1764E-4
MEAN_MOTION_DDOT = 0

CCSDS_OMM_VERS = 2.0
CREATION_DATE  = 
ORIGINATOR     = 

OBJECT_NAME    = SL-8 R/B
OBJECT_ID      = 1992-008B
CENTER_NAME    = EARTH
REF_FRAME      = TEME
TIME_SYSTEM    = UTC
MEAN_ELEMENT_THEORY = SGP/SGP4

EPOCH          = 2026-03-10T02:19:48.048096
MEAN_MOTION    = 13.75969834
ECCENTRICITY   = .00355931
INCLINATION    = 82.9225
RA_OF_ASC_NODE = 267.4753
ARG_OF_PERICENTER = 132.1695
MEAN_ANOMALY   = 346.8371

EPHEMERIS_TYPE = 0
CLASSIFICATION_TYPE = U
NORAD_CAT_ID   = 21876
ELEMENT_SET_NO = 999
REV_AT_EPOCH   = 70947
BSTAR          = -.1233565E-5
MEAN_MOTION_DOT = .14E-6
MEAN_MOTION_DDOT = 0

CCSDS_OMM_VERS = 2.0
CREATION_DATE  = 
ORIGINATOR     = 

OBJECT_NAME    = SL-8 R/B
OBJECT_ID      = 1992-020B
CENTER_NAME    = EARTH
REF_FRAME      = TEME
TIME_SYSTEM    = UTC
MEAN_ELEMENT_THEORY = SGP/SGP4

EPOCH          = 2026-03-10T06:32:44.613312
MEAN_MOTION    = 13.75549534
ECCENTRICITY   = .00276902
INCLINATION    = 82.9336
RA_OF_ASC_NODE = 153.3288
ARG_OF_PERICENTER = 297.0962
MEAN_ANOMALY   = 117.1074

EPHEMERIS_TYPE = 0
CLASSIFICATION_TYPE = U
NORAD_CAT_ID   = 21938
ELEMENT_SET_NO = 999
REV_AT_EPOCH   = 70121
BSTAR          = .55107264E-4
MEAN_MOTION_DOT = .68E-6
MEAN_MOTION_DDOT = 0

CCSDS_OMM_VERS = 2.0
CREATION_DATE  = 
ORIGINATOR     = 

OBJECT_NAME    = USA 81
OBJECT_ID      = 1992-023A
CENTER_NAME    = EARTH
REF_FRAME      = TEME
TIME_SYSTEM    = UTC
MEAN_ELEMENT_THEORY = SGP/SGP4

EPOCH          = 2026-03-10T03:32:50.760672
MEAN_MOTION    = 14.32368178
ECCENTRICITY   = .00024437
INCLINATION    = 85.0084
RA_OF_ASC_NODE = 131.1769
ARG_OF_PERICENTER = 77.2317
MEAN_ANOMALY   = 282.9149

EPHEMERIS_TYPE = 0
CLASSIFICATION_TYPE = U
NORAD_CAT_ID   = 21949
ELEMENT_SET_NO = 999
REV_AT_EPOCH   = 9485
BSTAR          = .65422512E-4
MEAN_MOTION_DOT = .197E-5
MEAN_MOTION_DDOT = 0

CCSDS_OMM_VERS = 2.0
CREATION_DATE  = 
ORIGINATOR     = 

OBJECT_NAME    = COSMOS 2219
OBJECT_ID      = 1992-076A
CENTER_NAME    = EARTH
REF_FRAME      = TEME
TIME_SYSTEM    = UTC
MEAN_ELEMENT_THEORY = SGP/SGP4

EPOCH          = 2026-03-10T07:10:43.890240
MEAN_MOTION    = 14.14092740
ECCENTRICITY   = .00189758
INCLINATION    = 71.0636
RA_OF_ASC_NODE = 16.7932
ARG_OF_PERICENTER = 206.2101
MEAN_ANOMALY   = 153.8063

EPHEMERIS_TYPE = 0
CLASSIFICATION_TYPE = U
NORAD_CAT_ID   = 22219
ELEMENT_SET_NO = 999
REV_AT_EPOCH   = 71846
BSTAR          = .81559392E-4
MEAN_MOTION_DOT = .108E-5
MEAN_MOTION_DDOT = 0

CCSDS_OMM_VERS = 2.0
CREATION_DATE  = 
ORIGINATOR     = 

OBJECT_NAME    = SL-16 R/B
OBJECT_ID      = 1992-076B
CENTER_NAME    = EARTH
REF_FRAME      = TEME
TIME_SYSTEM    = UTC
MEAN_ELEMENT_THEORY = SGP/SGP4

EPOCH          = 2026-03-10T07:49:39.390240
MEAN_MOTION    = 14.16859544
ECCENTRICITY   = .00104601
INCLINATION    = 71.0008
RA_OF_ASC_NODE = 187.0329
ARG_OF_PERICENTER = 95.2506
MEAN_ANOMALY   = 296.2076

EPHEMERIS_TYPE = 0
CLASSIFICATION_TYPE = U
NORAD_CAT_ID   = 22220
ELEMENT_SET_NO = 999
REV_AT_EPOCH   = 72192
BSTAR          = -.63211692E-4
MEAN_MOTION_DOT = -.175E-5
MEAN_MOTION_DDOT = 0

CCSDS_OMM_VERS = 2.0
CREATION_DATE  = 
ORIGINATOR     = 

OBJECT_NAME    = COSMOS 2221
OBJECT_ID      = 1992-080A
CENTER_NAME    = EARTH
REF_FRAME      = TEME
TIME_SYSTEM    = UTC
MEAN_ELEMENT_THEORY = SGP/SGP4

EPOCH          = 2026-03-09T23:19:19.776288
MEAN_MOTION    = 14.96201420
ECCENTRICITY   = .001407
INCLINATION    = 82.5011
RA_OF_ASC_NODE = 278.8108
ARG_OF_PERICENTER = 186.0623
MEAN_ANOMALY   = 174.0431

EPHEMERIS_TYPE = 0
CLASSIFICATION_TYPE = U
NORAD_CAT_ID   = 22236
ELEMENT_SET_NO = 999
REV_AT_EPOCH   = 78083
BSTAR          = .195E-3
MEAN_MOTION_DOT = .2227E-4
MEAN_MOTION_DDOT = 0

CCSDS_OMM_VERS = 2.0
CREATION_DATE  = 
ORIGINATOR     = 

OBJECT_NAME    = SL-16 R/B
OBJECT_ID      = 1992-093B
CENTER_NAME    = EARTH
REF_FRAME      = TEME
TIME_SYSTEM    = UTC
MEAN_ELEMENT_THEORY = SGP/SGP4

EPOCH          = 2026-03-10T05:37:14.022048
MEAN_MOTION    = 14.15447732
ECCENTRICITY   = .00064006
INCLINATION    = 71.0241
RA_OF_ASC_NODE = 3.1226
ARG_OF_PERICENTER = 293.1429
MEAN_ANOMALY   = 66.9019

EPHEMERIS_TYPE = 0
CLASSIFICATION_TYPE = U
NORAD_CAT_ID   = 22285
ELEMENT_SET_NO = 999
REV_AT_EPOCH   = 71323
BSTAR          = -.75333527E-4
MEAN_MOTION_DOT = -.195E-5
MEAN_MOTION_DDOT = 0

CCSDS_OMM_VERS = 2.0
CREATION_DATE  = 
ORIGINATOR     = 

OBJECT_NAME    = COSMOS 2228
OBJECT_ID      = 1992-094A
CENTER_NAME    = EARTH
REF_FRAME      = TEME
TIME_SYSTEM    = UTC
MEAN_ELEMENT_THEORY = SGP/SGP4

EPOCH          = 2026-03-10T06:07:34.991904
MEAN_MOTION    = 14.97193444
ECCENTRICITY   = .00167839
INCLINATION    = 82.5157
RA_OF_ASC_NODE = 236.7686
ARG_OF_PERICENTER = 302.7017
MEAN_ANOMALY   = 57.2586

EPHEMERIS_TYPE = 0
CLASSIFICATION_TYPE = U
NORAD_CAT_ID   = 22286
ELEMENT_SET_NO = 999
REV_AT_EPOCH   = 77614
BSTAR          = .25635979E-3
MEAN_MOTION_DOT = .2997E-4
MEAN_MOTION_DDOT = 0

CCSDS_OMM_VERS = 2.0
CREATION_DATE  = 
ORIGINATOR     = 

OBJECT_NAME    = SL-16 R/B
OBJECT_ID      = 1993-016B
CENTER_NAME    = EARTH
REF_FRAME      = TEME
TIME_SYSTEM    = UTC
MEAN_ELEMENT_THEORY = SGP/SGP4

EPOCH          = 2026-03-09T20:24:52.460352
MEAN_MOTION    = 14.15308750
ECCENTRICITY   = .0011827
INCLINATION    = 71.0073
RA_OF_ASC_NODE = 214.8427
ARG_OF_PERICENTER = 314.0352
MEAN_ANOMALY   = 45.9796

EPHEMERIS_TYPE = 0
CLASSIFICATION_TYPE = U
NORAD_CAT_ID   = 22566
ELEMENT_SET_NO = 999
REV_AT_EPOCH   = 70219
BSTAR          = .80304335E-4
MEAN_MOTION_DOT = .109E-5
MEAN_MOTION_DDOT = 0

